STARLINK-34696          
1 64808U 25150U   25336.25025610  .00086070  00000+0  19483-2 0  9996
2 64808  70.0004  22.0343 0004352 291.7036  68.3682 15.42688600 21876
STARLINK-34675          
1 64809U 25150V   25336.27851813  .00047572  00000+0  10802-2 0  9991
2 64809  70.0009  22.1380 0003054 270.6355  89.4477 15.42789986 21877
STARLINK-34608          
1 64810U 25150W   25336.27438393  .00072632  00000+0  16430-2 0  9995
2 64810  69.9999  22.1217 0004085 282.2434  77.8291 15.42770951 21872
STARLINK-34669          
1 64811U 25150X   25336.24610917  .00049497  00000+0  11256-2 0  9991
2 64811  70.0000  22.0193 0004100 268.2304  91.8408 15.42731184 21870
STARLINK-34644          
1 64812U 25150Y   25336.25003472 -.01774679  00000+0 -70629-1 0  9993
2 64812  70.0006  20.8280 0003692 280.7890  37.5678 15.28597877  5909
STARLINK-34685          
1 64813U 25150Z   25336.23404109  .00059491  00000+0  13493-2 0  9996
2 64813  70.0005  21.9756 0003110 271.1107  88.9718 15.42759391 21875
STARLINK-34668          
1 64814U 25150AA  25336.22594153  .00055105  00000+0  12491-2 0  9990
2 64814  70.0006  21.9466 0003142 276.1102  83.9722 15.42800673 21870
STARLINK-34667          
1 64815U 25150AB  25336.22989846  .00066016  00000+0  14946-2 0  9998
2 64815  70.0002  21.9616 0003444 271.8964  88.1823 15.42779857 21875
STARLINK-34723          
1 64842U 25152A   25336.13173164  .00006012  00000+0  42043-3 0  9998
2 64842  97.6038 189.2798 0002332  85.9267 274.2226 15.05657040 20730
STARLINK-34725          
1 64843U 25152B   25336.17598370  .00007864  00000+0  61598-3 0  9995
2 64843  97.6003 189.3845 0000659  70.9350 289.1945 15.01267458 20744
STARLINK-34709          
1 64844U 25152C   25336.11788998  .00003876  00000+0  27267-3 0  9991
2 64844  97.6032 189.2993 0002506  82.4839 277.6673 15.05653837 20736
STARLINK-34706          
1 64845U 25152D   25336.19542656  .00003631  00000+0  25585-3 0  9999
2 64845  97.6034 189.3504 0002584  92.2026 267.9496 15.05635320 20744
STARLINK-34736          
1 64846U 25152E   25336.15942200  .00007074  00000+0  49413-3 0  9996
2 64846  97.6001 189.3938 0001779  94.7278 265.4152 15.05637654 20745
STARLINK-34746          
1 64847U 25152F   25336.16497016  .00007564  00000+0  52787-3 0  9990
2 64847  97.6012 189.3902 0002224  72.7699 287.3771 15.05651307 20749
STARLINK-34748          
1 64848U 25152G   25336.15112463  .00003591  00000+0  25297-3 0  9992
2 64848  97.6023 189.4085 0001848  85.7146 274.4292 15.05652531 20742
STARLINK-34756          
1 64849U 25152H   25336.14535818  .00005031  00000+0  39580-3 0  9996
2 64849  97.6042 190.0479 0002751  84.7837 275.3701 15.01269469 20788
