[{"OBJECT_NAME":"STARLINK-34696","OBJECT_ID":"2025-150U","EPOCH":"2025-12-02T06:00:22.127040","MEAN_MOTION":15.426886,"ECCENTRICITY":0.00043524,"INCLINATION":70.0004,"RA_OF_ASC_NODE":22.0343,"ARG_OF_PERICENTER":291.7036,"MEAN_ANOMALY":68.3682,"EPHEMERIS_TYPE":0,"CLASSIFICATION_TYPE":"U","NORAD_CAT_ID":64808,"ELEMENT_SET_NO":999,"REV_AT_EPOCH":2187,"BSTAR":0.0019482876,"MEAN_MOTION_DOT":0.0008607,"MEAN_MOTION_DDOT":0},{"OBJECT_NAME":"STARLINK-34675","OBJECT_ID":"2025-150V","EPOCH":"2025-12-02T06:41:03.966432","MEAN_MOTION":15.42789986,"ECCENTRICITY":0.00030548,"INCLINATION":70.0009,"RA_OF_ASC_NODE":22.138,"ARG_OF_PERICENTER":270.6355,"MEAN_ANOMALY":89.4477,"EPHEMERIS_TYPE":0,"CLASSIFICATION_TYPE":"U","NORAD_CAT_ID":64809,"ELEMENT_SET_NO":999,"REV_AT_EPOCH":2187,"BSTAR":0.0010802248,"MEAN_MOTION_DOT":0.00047572,"MEAN_MOTION_DDOT":0},{"OBJECT_NAME":"STARLINK-34608","OBJECT_ID":"2025-150W","EPOCH":"2025-12-02T06:35:06.771552","MEAN_MOTION":15.42770951,"ECCENTRICITY":0.00040858,"INCLINATION":69.9999,"RA_OF_ASC_NODE":22.1217,"ARG_OF_PERICENTER":282.2434,"MEAN_ANOMALY":77.8291,"EPHEMERIS_TYPE":0,"CLASSIFICATION_TYPE":"U","NORAD_CAT_ID":64810,"ELEMENT_SET_NO":999,"REV_AT_EPOCH":2187,"BSTAR":0.001643011,"MEAN_MOTION_DOT":0.00072632,"MEAN_MOTION_DDOT":0},{"OBJECT_NAME":"STARLINK-34669","OBJECT_ID":"2025-150X","EPOCH":"2025-12-02T05:54:23.832288","MEAN_MOTION":15.42731184,"ECCENTRICITY":0.00041007,"INCLINATION":70,"RA_OF_ASC_NODE":22.0193,"ARG_OF_PERICENTER":268.2304,"MEAN_ANOMALY":91.8408,"EPHEMERIS_TYPE":0,"CLASSIFICATION_TYPE":"U","NORAD_CAT_ID":64811,"ELEMENT_SET_NO":999,"REV_AT_EPOCH":2187,"BSTAR":0.0011255869,"MEAN_MOTION_DOT":0.00049497,"MEAN_MOTION_DDOT":0},{"OBJECT_NAME":"STARLINK-34644","OBJECT_ID":"2025-150Y","EPOCH":"2025-12-02T06:00:02.999808","MEAN_MOTION":15.28597877,"ECCENTRICITY":0.0003692,"INCLINATION":70.0006,"RA_OF_ASC_NODE":20.828,"ARG_OF_PERICENTER":280.789,"MEAN_ANOMALY":37.5678,"EPHEMERIS_TYPE":0,"CLASSIFICATION_TYPE":"U","NORAD_CAT_ID":64812,"ELEMENT_SET_NO":999,"REV_AT_EPOCH":590,"BSTAR":-0.07062887,"MEAN_MOTION_DOT":-0.01774679,"MEAN_MOTION_DDOT":0},{"OBJECT_NAME":"STARLINK-34685","OBJECT_ID":"2025-150Z","EPOCH":"2025-12-02T05:37:01.150176","MEAN_MOTION":15.42759391,"ECCENTRICITY":0.00031106,"INCLINATION":70.0005,"RA_OF_ASC_NODE":21.9756,"ARG_OF_PERICENTER":271.1107,"MEAN_ANOMALY":88.9718,"EPHEMERIS_TYPE":0,"CLASSIFICATION_TYPE":"U","NORAD_CAT_ID":64813,"ELEMENT_SET_NO":999,"REV_AT_EPOCH":2187,"BSTAR":0.0013493029,"MEAN_MOTION_DOT":0.00059491,"MEAN_MOTION_DDOT":0},{"OBJECT_NAME":"STARLINK-34668","OBJECT_ID":"2025-150AA","EPOCH":"2025-12-02T05:25:21.348192","MEAN_MOTION":15.42800673,"ECCENTRICITY":0.00031427,"INCLINATION":70.0006,"RA_OF_ASC_NODE":21.9466,"ARG_OF_PERICENTER":276.1102,"MEAN_ANOMALY":83.9722,"EPHEMERIS_TYPE":0,"CLASSIFICATION_TYPE":"U","NORAD_CAT_ID":64814,"ELEMENT_SET_NO":999,"REV_AT_EPOCH":2187,"BSTAR":0.0012490613,"MEAN_MOTION_DOT":0.00055105,"MEAN_MOTION_DDOT":0},{"OBJECT_NAME":"STARLINK-34667","OBJECT_ID":"2025-150AB","EPOCH":"2025-12-02T05:31:03.226944","MEAN_MOTION":15.42779857,"ECCENTRICITY":0.00034441,"INCLINATION":70.0002,"RA_OF_ASC_NODE":21.9616,"ARG_OF_PERICENTER":271.8964,"MEAN_ANOMALY":88.1823,"EPHEMERIS_TYPE":0,"CLASSIFICATION_TYPE":"U","NORAD_CAT_ID":64815,"ELEMENT_SET_NO":999,"REV_AT_EPOCH":2187,"BSTAR":0.00149459,"MEAN_MOTION_DOT":0.00066016,"MEAN_MOTION_DDOT":0},{"OBJECT_NAME":"STARLINK-34723","OBJECT_ID":"2025-152A","EPOCH":"2025-12-02T03:09:41.613696","MEAN_MOTION":15.0565704,"ECCENTRICITY":0.00023327,"INCLINATION":97.6038,"RA_OF_ASC_NODE":189.2798,"ARG_OF_PERICENTER":85.9267,"MEAN_ANOMALY":274.2226,"EPHEMERIS_TYPE":0,"CLASSIFICATION_TYPE":"U","NORAD_CAT_ID":64842,"ELEMENT_SET_NO":999,"REV_AT_EPOCH":2073,"BSTAR":0.00042043079,"MEAN_MOTION_DOT":6.012e-5,"MEAN_MOTION_DDOT":0},{"OBJECT_NAME":"STARLINK-34725","OBJECT_ID":"2025-152B","EPOCH":"2025-12-02T04:13:24.991680","MEAN_MOTION":15.01267458,"ECCENTRICITY":6.594e-5,"INCLINATION":97.6003,"RA_OF_ASC_NODE":189.3845,"ARG_OF_PERICENTER":70.935,"MEAN_ANOMALY":289.1945,"EPHEMERIS_TYPE":0,"CLASSIFICATION_TYPE":"U","NORAD_CAT_ID":64843,"ELEMENT_SET_NO":999,"REV_AT_EPOCH":2074,"BSTAR":0.00061598163,"MEAN_MOTION_DOT":7.864e-5,"MEAN_MOTION_DDOT":0},{"OBJECT_NAME":"STARLINK-34709","OBJECT_ID":"2025-152C","EPOCH":"2025-12-02T02:49:45.694272","MEAN_MOTION":15.05653837,"ECCENTRICITY":0.00025065,"INCLINATION":97.6032,"RA_OF_ASC_NODE":189.2993,"ARG_OF_PERICENTER":82.4839,"MEAN_ANOMALY":277.6673,"EPHEMERIS_TYPE":0,"CLASSIFICATION_TYPE":"U","NORAD_CAT_ID":64844,"ELEMENT_SET_NO":999,"REV_AT_EPOCH":2073,"BSTAR":0.00027266725,"MEAN_MOTION_DOT":3.876e-5,"MEAN_MOTION_DDOT":0},{"OBJECT_NAME":"STARLINK-34706","OBJECT_ID":"2025-152D","EPOCH":"2025-12-02T04:41:24.854784","MEAN_MOTION":15.0563532,"ECCENTRICITY":0.00025841,"INCLINATION":97.6034,"RA_OF_ASC_NODE":189.3504,"ARG_OF_PERICENTER":92.2026,"MEAN_ANOMALY":267.9496,"EPHEMERIS_TYPE":0,"CLASSIFICATION_TYPE":"U","NORAD_CAT_ID":64845,"ELEMENT_SET_NO":999,"REV_AT_EPOCH":2074,"BSTAR":0.00025584609,"MEAN_MOTION_DOT":3.631e-5,"MEAN_MOTION_DDOT":0},{"OBJECT_NAME":"STARLINK-34736","OBJECT_ID":"2025-152E","EPOCH":"2025-12-02T03:49:34.060800","MEAN_MOTION":15.05637654,"ECCENTRICITY":0.00017797,"INCLINATION":97.6001,"RA_OF_ASC_NODE":189.3938,"ARG_OF_PERICENTER":94.7278,"MEAN_ANOMALY":265.4152,"EPHEMERIS_TYPE":0,"CLASSIFICATION_TYPE":"U","NORAD_CAT_ID":64846,"ELEMENT_SET_NO":999,"REV_AT_EPOCH":2074,"BSTAR":0.00049412818,"MEAN_MOTION_DOT":7.074e-5,"MEAN_MOTION_DDOT":0},{"OBJECT_NAME":"STARLINK-34746","OBJECT_ID":"2025-152F","EPOCH":"2025-12-02T03:57:33.421824","MEAN_MOTION":15.05651307,"ECCENTRICITY":0.00022241,"INCLINATION":97.6012,"RA_OF_ASC_NODE":189.3902,"ARG_OF_PERICENTER":72.7699,"MEAN_ANOMALY":287.3771,"EPHEMERIS_TYPE":0,"CLASSIFICATION_TYPE":"U","NORAD_CAT_ID":64847,"ELEMENT_SET_NO":999,"REV_AT_EPOCH":2074,"BSTAR":0.00052786859,"MEAN_MOTION_DOT":7.564e-5,"MEAN_MOTION_DDOT":0},{"OBJECT_NAME":"STARLINK-34748","OBJECT_ID":"2025-152G","EPOCH":"2025-12-02T03:37:37.168032","MEAN_MOTION":15.05652531,"ECCENTRICITY":0.0001848,"INCLINATION":97.6023,"RA_OF_ASC_NODE":189.4085,"ARG_OF_PERICENTER":85.7146,"MEAN_ANOMALY":274.4292,"EPHEMERIS_TYPE":0,"CLASSIFICATION_TYPE":"U","NORAD_CAT_ID":64848,"ELEMENT_SET_NO":999,"REV_AT_EPOCH":2074,"BSTAR":0.00025296672,"MEAN_MOTION_DOT":3.591e-5,"MEAN_MOTION_DDOT":0},{"OBJECT_NAME":"STARLINK-34756","OBJECT_ID":"2025-152H","EPOCH":"2025-12-02T03:29:18.946752","MEAN_MOTION":15.01269469,"ECCENTRICITY":0.00027511,"INCLINATION":97.6042,"RA_OF_ASC_NODE":190.0479,"ARG_OF_PERICENTER":84.7837,"MEAN_ANOMALY":275.3701,"EPHEMERIS_TYPE":0,"CLASSIFICATION_TYPE":"U","NORAD_CAT_ID":64849,"ELEMENT_SET_NO":999,"REV_AT_EPOCH":2078,"BSTAR":0.00039580425,"MEAN_MOTION_DOT":5.031e-5,"MEAN_MOTION_DDOT":0}]
